ONEWEB-0199             
1 48234U 21031AA  24330.66159332 -.00000199  00000+0 -57122-3 0  9995
2 48234  87.9019  42.7441 0002825 110.4545 249.6888 13.14502117173579
ONEWEB-0203             
1 48235U 21031AB  24330.57597345  .00000139  00000+0  34072-3 0  9997
2 48235  87.9026  42.7650 0001768  87.3870 272.7462 13.14500480173574
ONEWEB-0197             
1 48236U 21031AC  24330.24690690 -.00000045  00000+0 -15469-3 0  9996
2 48236  87.9025  42.8399 0002056 106.3321 253.8035 13.14505561173446
ONEWEB-0194             
1 48237U 21031AD  24330.60610108 -.00000062  00000+0 -20060-3 0  9995
2 48237  87.9031  42.7635 0001870  91.5634 268.5709 13.14501344173661
ONEWEB-0193             
1 48238U 21031AE  24330.24136383 -.00000121  00000+0 -36160-3 0  9998
2 48238  87.9026  42.8436 0001683  93.8164 266.3158 13.14501999173560
ONEWEB-0191             
1 48239U 21031AF  24330.25245601 -.00000279  00000+0 -78585-3 0  9995
2 48239  87.9022  42.8204 0001563  98.7380 261.3927 13.14503988173425
ONEWEB-0195             
1 48240U 21031AG  24330.68619006 -.00000078  00000+0 -24353-3 0  9999
2 48240  87.9026  42.7330 0001343 104.4010 255.7269 13.14503532173466
ONEWEB-0201             
1 48241U 21031AH  24330.67506630  .00000056  00000+0  11710-3 0  9994
2 48241  87.9029  42.7748 0001618 106.2420 253.8888 13.14502787173695
